{"type": "FeatureCollection", "features": [ {"type": "Feature", "properties": {"norad_id": 37533, "name": "COSMOS 2251 DEB", "group": "cosmos-2251-debris", "lat": -44.80731087118568, "lon": 2.6074290473971207, "alt_km": 745.0209078782536, "timestamp": "2025-12-27T07:26:25.618370+00:00", "meta": {"OBJECT_NAME": "COSMOS 2251 DEB", "OBJECT_ID": "1993-036BNN", "EPOCH": "2025-12-17T06:38:38.162976", "MEAN_MOTION": 14.12190824, "ECCENTRICITY": 0.0157786, "INCLINATION": 74.0692, "RA_OF_ASC_NODE": 183.8069, "ARG_OF_PERICENTER": 239.4795, "MEAN_ANOMALY": 119.0691, "EPHEMERIS_TYPE": 0, "CLASSIFICATION_TYPE": "U", "NORAD_CAT_ID": 37533, "ELEMENT_SET_NO": 999, "REV_AT_EPOCH": 62985, "BSTAR": 0.0010470743, "MEAN_MOTION_DOT": 2.138e-05, "MEAN_MOTION_DDOT": 0}, "tle": {"line1": "1 37533U 93036BNN 25351.27683059  .00002138  00000+0  10471-2 0  9996", "line2": "2 37533  74.0692 183.8069 0157786 239.4795 119.0691 14.12190824629858"}}, "geometry": {"type": "Point", "coordinates": [2.6074290473971207, -44.80731087118568]}}, {"type": "Feature", "properties": {"norad_id": 37535, "name": "COSMOS 2251 DEB", "group": "cosmos-2251-debris", "lat": 51.826207108980434, "lon": 67.11370516021708, "alt_km": 704.2331952018376, "timestamp": "2025-12-27T07:26:25.618380+00:00", "meta": {"OBJECT_NAME": "COSMOS 2251 DEB", "OBJECT_ID": "1993-036BNQ", "EPOCH": "2025-12-26T20:12:03.430368", "MEAN_MOTION": 14.58545393, "ECCENTRICITY": 0.00269835, "INCLINATION": 74.0234, "RA_OF_ASC_NODE": 46.6343, "ARG_OF_PERICENTER": 183.2015, "MEAN_ANOMALY": 293.977, "EPHEMERIS_TYPE": 0, "CLASSIFICATION_TYPE": "U", "NORAD_CAT_ID": 37535, "ELEMENT_SET_NO": 999, "REV_AT_EPOCH": 85530, "BSTAR": 0.00066483294, "MEAN_MOTION_DOT": 3.078e-05, "MEAN_MOTION_DDOT": 0}, "tle": {"line1": "1 37535U 93036BNQ 25360.84170637  .00003078  00000+0  66483-3 0  9993", "line2": "2 37535  74.0234  46.6343 0026983 183.2015 293.9770 14.58545393855304"}}, "geometry": {"type": "Point", "coordinates": [67.11370516021708, 51.826207108980434]}}, {"type": "Feature", "properties": {"norad_id": 37537, "name": "COSMOS 2251 DEB", "group": "cosmos-2251-debris", "lat": -43.076693213172305, "lon": 73.82456773800163, "alt_km": 804.3397015900664, "timestamp": "2025-12-27T07:26:25.618390+00:00", "meta": {"OBJECT_NAME": "COSMOS 2251 DEB", "OBJECT_ID": "1993-036BNS", "EPOCH": "2025-12-26T23:42:52.766208", "MEAN_MOTION": 14.37510306, "ECCENTRICITY": 0.00509211, "INCLINATION": 74.011, "RA_OF_ASC_NODE": 238.8669, "ARG_OF_PERICENTER": 15.3956, "MEAN_ANOMALY": 344.8732, "EPHEMERIS_TYPE": 0, "CLASSIFICATION_TYPE": "U", "NORAD_CAT_ID": 37537, "ELEMENT_SET_NO": 999, "REV_AT_EPOCH": 85238, "BSTAR": 0.00022011049, "MEAN_MOTION_DOT": 6.43e-06, "MEAN_MOTION_DDOT": 0}, "tle": {"line1": "1 37537U 93036BNS 25360.98811072  .00000643  00000+0  22011-3 0  9999", "line2": "2 37537  74.0110 238.8669 0050921  15.3956 344.8732 14.37510306852385"}}, "geometry": {"type": "Point", "coordinates": [73.82456773800163, -43.076693213172305]}}, {"type": "Feature", "properties": {"norad_id": 37546, "name": "COSMOS 2251 DEB", "group": "cosmos-2251-debris", "lat": 49.37130710471114, "lon": 88.75551488564301, "alt_km": 617.4468748813997, "timestamp": "2025-12-27T07:26:25.618400+00:00", "meta": {"OBJECT_NAME": "COSMOS 2251 DEB", "OBJECT_ID": "1993-036BPB", "EPOCH": "2025-12-25T04:56:56.302944", "MEAN_MOTION": 14.80966305, "ECCENTRICITY": 0.0005402, "INCLINATION": 74.0212, "RA_OF_ASC_NODE": 73.3979, "ARG_OF_PERICENTER": 64.6896, "MEAN_ANOMALY": 295.4839, "EPHEMERIS_TYPE": 0, "CLASSIFICATION_TYPE": "U", "NORAD_CAT_ID": 37546, "ELEMENT_SET_NO": 999, "REV_AT_EPOCH": 66072, "BSTAR": 0.0024894, "MEAN_MOTION_DOT": 0.000193, "MEAN_MOTION_DDOT": 0}, "tle": {"line1": "1 37546U 93036BPB 25359.20620721  .00019300  00000+0  24894-2 0  9991", "line2": "2 37546  74.0212  73.3979 0005402  64.6896 295.4839 14.80966305660724"}}, "geometry": {"type": "Point", "coordinates": [88.75551488564301, 49.37130710471114]}}, {"type": "Feature", "properties": {"norad_id": 37959, "name": "COSMOS 2251 DEB", "group": "cosmos-2251-debris", "lat": 36.47847749692062, "lon": -163.06303262931766, "alt_km": 659.930635332461, "timestamp": "2025-12-27T07:26:25.618410+00:00", "meta": {"OBJECT_NAME": "COSMOS 2251 DEB", "OBJECT_ID": "1993-036BPJ", "EPOCH": "2025-12-22T13:53:21.860736", "MEAN_MOTION": 14.58199594, "ECCENTRICITY": 0.00571783, "INCLINATION": 74.0084, "RA_OF_ASC_NODE": 38.1929, "ARG_OF_PERICENTER": 178.962, "MEAN_ANOMALY": 335.9914, "EPHEMERIS_TYPE": 0, "CLASSIFICATION_TYPE": "U", "NORAD_CAT_ID": 37959, "ELEMENT_SET_NO": 999, "REV_AT_EPOCH": 80270, "BSTAR": 0.00056222313, "MEAN_MOTION_DOT": 2.624e-05, "MEAN_MOTION_DDOT": 0}, "tle": {"line1": "1 37959U 93036BPJ 25356.57872524  .00002624  00000+0  56222-3 0  9998", "line2": "2 37959  74.0084  38.1929 0057178 178.9620 335.9914 14.58199594802707"}}, "geometry": {"type": "Point", "coordinates": [-163.06303262931766, 36.47847749692062]}}, {"type": "Feature", "properties": {"norad_id": 37960, "name": "COSMOS 2251 DEB", "group": "cosmos-2251-debris", "lat": -62.484420573740756, "lon": 14.635237986872683, "alt_km": 809.9771665800554, "timestamp": "2025-12-27T07:26:25.618420+00:00", "meta": {"OBJECT_NAME": "COSMOS 2251 DEB", "OBJECT_ID": "1993-036BPK", "EPOCH": "2025-12-23T05:04:36.493536", "MEAN_MOTION": 14.07887566, "ECCENTRICITY": 0.02481157, "INCLINATION": 74.0591, "RA_OF_ASC_NODE": 168.5402, "ARG_OF_PERICENTER": 184.7073, "MEAN_ANOMALY": 175.1734, "EPHEMERIS_TYPE": 0, "CLASSIFICATION_TYPE": "U", "NORAD_CAT_ID": 37960, "ELEMENT_SET_NO": 999, "REV_AT_EPOCH": 77553, "BSTAR": 0.0007466601, "MEAN_MOTION_DOT": 1.655e-05, "MEAN_MOTION_DDOT": 0}, "tle": {"line1": "1 37960U 93036BPK 25357.21153349  .00001655  00000+0  74666-3 0  9994", "line2": "2 37960  74.0591 168.5402 0248115 184.7073 175.1734 14.07887566775537"}}, "geometry": {"type": "Point", "coordinates": [14.635237986872683, -62.484420573740756]}}, {"type": "Feature", "properties": {"norad_id": 37961, "name": "COSMOS 2251 DEB", "group": "cosmos-2251-debris", "lat": -20.50676176411967, "lon": -64.44922421363425, "alt_km": 676.0618598672272, "timestamp": "2025-12-27T07:26:25.618430+00:00", "meta": {"OBJECT_NAME": "COSMOS 2251 DEB", "OBJECT_ID": "1993-036BPL", "EPOCH": "2025-12-13T03:18:27.462240", "MEAN_MOTION": 14.57979799, "ECCENTRICITY": 0.00406759, "INCLINATION": 74.0407, "RA_OF_ASC_NODE": 136.3488, "ARG_OF_PERICENTER": 216.8805, "MEAN_ANOMALY": 142.9561, "EPHEMERIS_TYPE": 0, "CLASSIFICATION_TYPE": "U", "NORAD_CAT_ID": 37961, "ELEMENT_SET_NO": 999, "REV_AT_EPOCH": 80071, "BSTAR": 0.001729191, "MEAN_MOTION_DOT": 8.011e-05, "MEAN_MOTION_DDOT": 0}, "tle": {"line1": "1 37961U 93036BPL 25347.13781785  .00008011  00000+0  17292-2 0  9990", "line2": "2 37961  74.0407 136.3488 0040675 216.8805 142.9561 14.57979799800716"}}, "geometry": {"type": "Point", "coordinates": [-64.44922421363425, -20.50676176411967]}}, {"type": "Feature", "properties": {"norad_id": 37966, "name": "COSMOS 2251 DEB", "group": "cosmos-2251-debris", "lat": -28.823728522532683, "lon": -168.88352387660433, "alt_km": 529.6413851308625, "timestamp": "2025-12-27T07:26:25.618440+00:00", "meta": {"OBJECT_NAME": "COSMOS 2251 DEB", "OBJECT_ID": "1993-036BPR", "EPOCH": "2025-12-13T08:51:38.421216", "MEAN_MOTION": 15.12745257, "ECCENTRICITY": 0.0008827, "INCLINATION": 73.9781, "RA_OF_ASC_NODE": 229.2381, "ARG_OF_PERICENTER": 105.5668, "MEAN_ANOMALY": 254.6501, "EPHEMERIS_TYPE": 0, "CLASSIFICATION_TYPE": "U", "NORAD_CAT_ID": 37966, "ELEMENT_SET_NO": 999, "REV_AT_EPOCH": 85352, "BSTAR": 0.0033929269, "MEAN_MOTION_DOT": 0.00060007, "MEAN_MOTION_DDOT": 0}, "tle": {"line1": "1 37966U 93036BPR 25347.36919469  .00060007  00000+0  33929-2 0  9990", "line2": "2 37966  73.9781 229.2381 0008827 105.5668 254.6501 15.12745257853526"}}, "geometry": {"type": "Point", "coordinates": [-168.88352387660433, -28.823728522532683]}}, {"type": "Feature", "properties": {"norad_id": 37967, "name": "COSMOS 2251 DEB", "group": "cosmos-2251-debris", "lat": 44.8084804791587, "lon": -86.1526553769828, "alt_km": 793.2320540679111, "timestamp": "2025-12-27T07:26:25.618451+00:00", "meta": {"OBJECT_NAME": "COSMOS 2251 DEB", "OBJECT_ID": "1993-036BPS", "EPOCH": "2025-12-25T14:48:50.438880", "MEAN_MOTION": 14.4066325, "ECCENTRICITY": 0.0151034, "INCLINATION": 74.0157, "RA_OF_ASC_NODE": 113.525, "ARG_OF_PERICENTER": 249.5941, "MEAN_ANOMALY": 108.8939, "EPHEMERIS_TYPE": 0, "CLASSIFICATION_TYPE": "U", "NORAD_CAT_ID": 37967, "ELEMENT_SET_NO": 999, "REV_AT_EPOCH": 64921, "BSTAR": 0.0020469, "MEAN_MOTION_DOT": 7.459e-05, "MEAN_MOTION_DDOT": 0}, "tle": {"line1": "1 37967U 93036BPS 25359.61725045  .00007459  00000+0  20469-2 0  9994", "line2": "2 37967  74.0157 113.5250 0151034 249.5941 108.8939 14.40663250649214"}}, "geometry": {"type": "Point", "coordinates": [-86.1526553769828, 44.8084804791587]}}, {"type": "Feature", "properties": {"norad_id": 37968, "name": "COSMOS 2251 DEB", "group": "cosmos-2251-debris", "lat": -19.26290428582804, "lon": 67.19814159944221, "alt_km": 618.7655011428724, "timestamp": "2025-12-27T07:26:25.618461+00:00", "meta": {"OBJECT_NAME": "COSMOS 2251 DEB", "OBJECT_ID": "1993-036BPT", "EPOCH": "2025-12-26T09:45:16.750368", "MEAN_MOTION": 15.0094224, "ECCENTRICITY": 0.0080595, "INCLINATION": 73.9991, "RA_OF_ASC_NODE": 243.2853, "ARG_OF_PERICENTER": 355.6401, "MEAN_ANOMALY": 4.4073, "EPHEMERIS_TYPE": 0, "CLASSIFICATION_TYPE": "U", "NORAD_CAT_ID": 37968, "ELEMENT_SET_NO": 999, "REV_AT_EPOCH": 60424, "BSTAR": 0.00078163, "MEAN_MOTION_DOT": 0.00010652, "MEAN_MOTION_DDOT": 0}, "tle": {"line1": "1 37968U 93036BPT 25360.40644387  .00010652  00000+0  78163-3 0  9997", "line2": "2 37968  73.9991 243.2853 0080595 355.6401   4.4073 15.00942240604242"}}, "geometry": {"type": "Point", "coordinates": [67.19814159944221, -19.26290428582804]}}]}